OBJECT B                
1 51825U 22019B   26065.83437773  .00072751  00000+0  85632-3 0  9994
2 51825  97.3534 153.0740 0007377 143.0766 217.1000 15.61144748223723
